[{"OBJECT_NAME":"STARLINK-3778","OBJECT_ID":"2022-041R","EPOCH":"2026-03-09T09:45:21.745152","MEAN_MOTION":15.08835812,"ECCENTRICITY":0.00014434,"INCLINATION":53.2164,"RA_OF_ASC_NODE":110.3894,"ARG_OF_PERICENTER":90.0583,"MEAN_ANOMALY":270.0575,"EPHEMERIS_TYPE":0,"CLASSIFICATION_TYPE":"U","NORAD_CAT_ID":52276,"ELEMENT_SET_NO":999,"REV_AT_EPOCH":21432,"BSTAR":-1.711882e-5,"MEAN_MOTION_DOT":-5.6e-6,"MEAN_MOTION_DDOT":0},{"OBJECT_NAME":"KUIPER-00164","OBJECT_ID":"2025-301B","EPOCH":"2026-03-09T22:00:01.999584","MEAN_MOTION":15.08488187,"ECCENTRICITY":0.00045568,"INCLINATION":51.8847,"RA_OF_ASC_NODE":66.2292,"ARG_OF_PERICENTER":84.8156,"MEAN_ANOMALY":198.9561,"EPHEMERIS_TYPE":0,"CLASSIFICATION_TYPE":"U","NORAD_CAT_ID":67134,"ELEMENT_SET_NO":999,"REV_AT_EPOCH":541,"BSTAR":0.00024752424,"MEAN_MOTION_DOT":3.618e-5,"MEAN_MOTION_DDOT":0}]
